[{"OBJECT_NAME":"STARLINK-35100","OBJECT_ID":"2025-200Y","EPOCH":"2026-03-09T22:25:40.522656","MEAN_MOTION":15.05646142,"ECCENTRICITY":0.00014193,"INCLINATION":97.6033,"RA_OF_ASC_NODE":139.9791,"ARG_OF_PERICENTER":100.2102,"MEAN_ANOMALY":259.9285,"EPHEMERIS_TYPE":0,"CLASSIFICATION_TYPE":"U","NORAD_CAT_ID":65542,"ELEMENT_SET_NO":999,"REV_AT_EPOCH":2916,"BSTAR":0.00023164554,"MEAN_MOTION_DOT":3.283e-5,"MEAN_MOTION_DDOT":0},{"OBJECT_NAME":"PSLV DEB","OBJECT_ID":"2001-049PR","EPOCH":"2026-03-09T15:06:31.993344","MEAN_MOTION":15.1271322,"ECCENTRICITY":0.0041907,"INCLINATION":98.4927,"RA_OF_ASC_NODE":1.3381,"ARG_OF_PERICENTER":112.6989,"MEAN_ANOMALY":247.8677,"EPHEMERIS_TYPE":0,"CLASSIFICATION_TYPE":"U","NORAD_CAT_ID":34221,"ELEMENT_SET_NO":999,"REV_AT_EPOCH":29932,"BSTAR":0.00024868,"MEAN_MOTION_DOT":4.366e-5,"MEAN_MOTION_DDOT":0}]
